[
   {
      "name":"Afghanistan",
      "code":"AF",
      "flag":"https://www.countryflags.io/AF/flat/64.png",
      "dial_code":"93",
      "currency":"AFN"
   },
   {
      "name":"Ã…land Islands",
      "code":"AX",
      "flag":"https://www.countryflags.io/AX/flat/64.png",
      "dial_code":"+358-18",
      "currency":"EUR"
   },
   {
      "name":"Albania",
      "code":"AL",
      "flag":"https://www.countryflags.io/AL/flat/64.png",
      "dial_code":"355",
      "currency":"ALL"
   },
   {
      "name":"Algeria",
      "code":"DZ",
      "flag":"https://www.countryflags.io/DZ/flat/64.png",
      "dial_code":"213",
      "currency":"DZD"
   },
   {
      "name":"American Samoa",
      "code":"AS",
      "flag":"https://www.countryflags.io/AS/flat/64.png",
      "dial_code":"+1-684",
      "currency":"USD"
   },
   {
      "name":"AndorrA",
      "code":"AD",
      "flag":"https://www.countryflags.io/AD/flat/64.png",
      "dial_code":"376",
      "currency":"EUR"
   },
   {
      "name":"Angola",
      "code":"AO",
      "flag":"https://www.countryflags.io/AO/flat/64.png",
      "dial_code":"244",
      "currency":"AOA"
   },
   {
      "name":"Anguilla",
      "code":"AI",
      "flag":"https://www.countryflags.io/AI/flat/64.png",
      "dial_code":"+1-264",
      "currency":"XCD"
   },
   {
      "name":"Antarctica",
      "code":"AQ",
      "flag":"https://www.countryflags.io/AQ/flat/64.png",
      "dial_code":"",
      "currency":""
   },
   {
      "name":"Antigua and Barbuda",
      "code":"AG",
      "flag":"https://www.countryflags.io/AG/flat/64.png",
      "dial_code":"+1-268",
      "currency":"XCD"
   },
   {
      "name":"Argentina",
      "code":"AR",
      "flag":"https://www.countryflags.io/AR/flat/64.png",
      "dial_code":"54",
      "currency":"ARS"
   },
   {
      "name":"Armenia",
      "code":"AM",
      "flag":"https://www.countryflags.io/AM/flat/64.png",
      "dial_code":"374",
      "currency":"AMD"
   },
   {
      "name":"Aruba",
      "code":"AW",
      "flag":"https://www.countryflags.io/AW/flat/64.png",
      "dial_code":"297",
      "currency":"AWG"
   },
   {
      "name":"Australia",
      "code":"AU",
      "flag":"https://www.countryflags.io/AU/flat/64.png",
      "dial_code":"61",
      "currency":"AUD"
   },
   {
      "name":"Austria",
      "code":"AT",
      "flag":"https://www.countryflags.io/AT/flat/64.png",
      "dial_code":"43",
      "currency":"EUR"
   },
   {
      "name":"Azerbaijan",
      "code":"AZ",
      "flag":"https://www.countryflags.io/AZ/flat/64.png",
      "dial_code":"994",
      "currency":"AZN"
   },
   {
      "name":"Bahamas",
      "code":"BS",
      "flag":"https://www.countryflags.io/BS/flat/64.png",
      "dial_code":"+1-242",
      "currency":"BSD"
   },
   {
      "name":"Bahrain",
      "code":"BH",
      "flag":"https://www.countryflags.io/BH/flat/64.png",
      "dial_code":"973",
      "currency":"BHD"
   },
   {
      "name":"Bangladesh",
      "code":"BD",
      "flag":"https://www.countryflags.io/BD/flat/64.png",
      "dial_code":"880",
      "currency":"BDT"
   },
   {
      "name":"Barbados",
      "code":"BB",
      "flag":"https://www.countryflags.io/BB/flat/64.png",
      "dial_code":"+1-246",
      "currency":"BBD"
   },
   {
      "name":"Belarus",
      "code":"BY",
      "flag":"https://www.countryflags.io/BY/flat/64.png",
      "dial_code":"375",
      "currency":"BYR"
   },
   {
      "name":"Belgium",
      "code":"BE",
      "flag":"https://www.countryflags.io/BE/flat/64.png",
      "dial_code":"32",
      "currency":"EUR"
   },
   {
      "name":"Belize",
      "code":"BZ",
      "flag":"https://www.countryflags.io/BZ/flat/64.png",
      "dial_code":"501",
      "currency":"BZD"
   },
   {
      "name":"Benin",
      "code":"BJ",
      "flag":"https://www.countryflags.io/BJ/flat/64.png",
      "dial_code":"229",
      "currency":"XOF"
   },
   {
      "name":"Bermuda",
      "code":"BM",
      "flag":"https://www.countryflags.io/BM/flat/64.png",
      "dial_code":"+1-441",
      "currency":"BMD"
   },
   {
      "name":"Bhutan",
      "code":"BT",
      "flag":"https://www.countryflags.io/BT/flat/64.png",
      "dial_code":"975",
      "currency":"BTN"
   },
   {
      "name":"Bolivia",
      "code":"BO",
      "flag":"https://www.countryflags.io/BO/flat/64.png",
      "dial_code":"591",
      "currency":"BOB"
   },
   {
      "name":"Bosnia and Herzegovina",
      "code":"BA",
      "flag":"https://www.countryflags.io/BA/flat/64.png",
      "dial_code":"387",
      "currency":"BAM"
   },
   {
      "name":"Botswana",
      "code":"BW",
      "flag":"https://www.countryflags.io/BW/flat/64.png",
      "dial_code":"267",
      "currency":"BWP"
   },
   {
      "name":"Bouvet Island",
      "code":"BV",
      "flag":"https://www.countryflags.io/BV/flat/64.png",
      "dial_code":"",
      "currency":"NOK"
   },
   {
      "name":"Brazil",
      "code":"BR",
      "flag":"https://www.countryflags.io/BR/flat/64.png",
      "dial_code":"55",
      "currency":"BRL"
   },
   {
      "name":"British Indian Ocean Territory",
      "code":"IO",
      "flag":"https://www.countryflags.io/IO/flat/64.png",
      "dial_code":"246",
      "currency":"USD"
   },
   {
      "name":"Brunei Darussalam",
      "code":"BN",
      "flag":"https://www.countryflags.io/BN/flat/64.png",
      "dial_code":"673",
      "currency":"BND"
   },
   {
      "name":"Bulgaria",
      "code":"BG",
      "flag":"https://www.countryflags.io/BG/flat/64.png",
      "dial_code":"359",
      "currency":"BGN"
   },
   {
      "name":"Burkina Faso",
      "code":"BF",
      "flag":"https://www.countryflags.io/BF/flat/64.png",
      "dial_code":"226",
      "currency":"XOF"
   },
   {
      "name":"Burundi",
      "code":"BI",
      "flag":"https://www.countryflags.io/BI/flat/64.png",
      "dial_code":"257",
      "currency":"BIF"
   },
   {
      "name":"Cambodia",
      "code":"KH",
      "flag":"https://www.countryflags.io/KH/flat/64.png",
      "dial_code":"855",
      "currency":"KHR"
   },
   {
      "name":"Cameroon",
      "code":"CM",
      "flag":"https://www.countryflags.io/CM/flat/64.png",
      "dial_code":"237",
      "currency":"XAF"
   },
   {
      "name":"Canada",
      "code":"CA",
      "flag":"https://www.countryflags.io/CA/flat/64.png",
      "dial_code":"1",
      "currency":"CAD"
   },
   {
      "name":"Cape Verde",
      "code":"CV",
      "flag":"https://www.countryflags.io/CV/flat/64.png",
      "dial_code":"238",
      "currency":"CVE"
   },
   {
      "name":"Cayman Islands",
      "code":"KY",
      "flag":"https://www.countryflags.io/KY/flat/64.png",
      "dial_code":"+1-345",
      "currency":"KYD"
   },
   {
      "name":"Central African Republic",
      "code":"CF",
      "flag":"https://www.countryflags.io/CF/flat/64.png",
      "dial_code":"236",
      "currency":"XAF"
   },
   {
      "name":"Chad",
      "code":"TD",
      "flag":"https://www.countryflags.io/TD/flat/64.png",
      "dial_code":"235",
      "currency":"XAF"
   },
   {
      "name":"Chile",
      "code":"CL",
      "flag":"https://www.countryflags.io/CL/flat/64.png",
      "dial_code":"56",
      "currency":"CLP"
   },
   {
      "name":"China",
      "code":"CN",
      "flag":"https://www.countryflags.io/CN/flat/64.png",
      "dial_code":"86",
      "currency":"CNY"
   },
   {
      "name":"Christmas Island",
      "code":"CX",
      "flag":"https://www.countryflags.io/CX/flat/64.png",
      "dial_code":"61",
      "currency":"AUD"
   },
   {
      "name":"Cocos (Keeling) Islands",
      "code":"CC",
      "flag":"https://www.countryflags.io/CC/flat/64.png",
      "dial_code":"61",
      "currency":"AUD"
   },
   {
      "name":"Colombia",
      "code":"CO",
      "flag":"https://www.countryflags.io/CO/flat/64.png",
      "dial_code":"57",
      "currency":"COP"
   },
   {
      "name":"Comoros",
      "code":"KM",
      "flag":"https://www.countryflags.io/KM/flat/64.png",
      "dial_code":"269",
      "currency":"KMF"
   },
   {
      "name":"Congo",
      "code":"CG",
      "flag":"https://www.countryflags.io/CG/flat/64.png",
      "dial_code":"242",
      "currency":"XAF"
   },
   {
      "name":"Congo, The Democratic Republic of the",
      "code":"CD",
      "flag":"https://www.countryflags.io/CD/flat/64.png",
      "dial_code":"243",
      "currency":"CDF"
   },
   {
      "name":"Cook Islands",
      "code":"CK",
      "flag":"https://www.countryflags.io/CK/flat/64.png",
      "dial_code":"682",
      "currency":"NZD"
   },
   {
      "name":"Costa Rica",
      "code":"CR",
      "flag":"https://www.countryflags.io/CR/flat/64.png",
      "dial_code":"506",
      "currency":"CRC"
   },
   {
      "name":"Cote D'Ivoire",
      "code":"CI",
      "flag":"https://www.countryflags.io/CI/flat/64.png",
      "dial_code":"225",
      "currency":"XOF"
   },
   {
      "name":"Croatia",
      "code":"HR",
      "flag":"https://www.countryflags.io/HR/flat/64.png",
      "dial_code":"385",
      "currency":"HRK"
   },
   {
      "name":"Cuba",
      "code":"CU",
      "flag":"https://www.countryflags.io/CU/flat/64.png",
      "dial_code":"53",
      "currency":"CUP"
   },
   {
      "name":"Cyprus",
      "code":"CY",
      "flag":"https://www.countryflags.io/CY/flat/64.png",
      "dial_code":"357",
      "currency":"EUR"
   },
   {
      "name":"Czech Republic",
      "code":"CZ",
      "flag":"https://www.countryflags.io/CZ/flat/64.png",
      "dial_code":"420",
      "currency":"CZK"
   },
   {
      "name":"Denmark",
      "code":"DK",
      "flag":"https://www.countryflags.io/DK/flat/64.png",
      "dial_code":"45",
      "currency":"DKK"
   },
   {
      "name":"Djibouti",
      "code":"DJ",
      "flag":"https://www.countryflags.io/DJ/flat/64.png",
      "dial_code":"253",
      "currency":"DJF"
   },
   {
      "name":"Dominica",
      "code":"DM",
      "flag":"https://www.countryflags.io/DM/flat/64.png",
      "dial_code":"+1-767",
      "currency":"XCD"
   },
   {
      "name":"Dominican Republic",
      "code":"DO",
      "flag":"https://www.countryflags.io/DO/flat/64.png",
      "dial_code":"+1-809 and 1-829",
      "currency":"DOP"
   },
   {
      "name":"Ecuador",
      "code":"EC",
      "flag":"https://www.countryflags.io/EC/flat/64.png",
      "dial_code":"593",
      "currency":"USD"
   },
   {
      "name":"Egypt",
      "code":"EG",
      "flag":"https://www.countryflags.io/EG/flat/64.png",
      "dial_code":"20",
      "currency":"EGP"
   },
   {
      "name":"El Salvador",
      "code":"SV",
      "flag":"https://www.countryflags.io/SV/flat/64.png",
      "dial_code":"503",
      "currency":"USD"
   },
   {
      "name":"Equatorial Guinea",
      "code":"GQ",
      "flag":"https://www.countryflags.io/GQ/flat/64.png",
      "dial_code":"240",
      "currency":"XAF"
   },
   {
      "name":"Eritrea",
      "code":"ER",
      "flag":"https://www.countryflags.io/ER/flat/64.png",
      "dial_code":"291",
      "currency":"ERN"
   },
   {
      "name":"Estonia",
      "code":"EE",
      "flag":"https://www.countryflags.io/EE/flat/64.png",
      "dial_code":"372",
      "currency":"EUR"
   },
   {
      "name":"Ethiopia",
      "code":"ET",
      "flag":"https://www.countryflags.io/ET/flat/64.png",
      "dial_code":"251",
      "currency":"ETB"
   },
   {
      "name":"Falkland Islands (Malvinas)",
      "code":"FK",
      "flag":"https://www.countryflags.io/FK/flat/64.png",
      "dial_code":"500",
      "currency":"FKP"
   },
   {
      "name":"Faroe Islands",
      "code":"FO",
      "flag":"https://www.countryflags.io/FO/flat/64.png",
      "dial_code":"298",
      "currency":"DKK"
   },
   {
      "name":"Fiji",
      "code":"FJ",
      "flag":"https://www.countryflags.io/FJ/flat/64.png",
      "dial_code":"679",
      "currency":"FJD"
   },
   {
      "name":"Finland",
      "code":"FI",
      "flag":"https://www.countryflags.io/FI/flat/64.png",
      "dial_code":"358",
      "currency":"EUR"
   },
   {
      "name":"France",
      "code":"FR",
      "flag":"https://www.countryflags.io/FR/flat/64.png",
      "dial_code":"33",
      "currency":"EUR"
   },
   {
      "name":"French Guiana",
      "code":"GF",
      "flag":"https://www.countryflags.io/GF/flat/64.png",
      "dial_code":"594",
      "currency":"EUR"
   },
   {
      "name":"French Polynesia",
      "code":"PF",
      "flag":"https://www.countryflags.io/PF/flat/64.png",
      "dial_code":"689",
      "currency":"XPF"
   },
   {
      "name":"French Southern Territories",
      "code":"TF",
      "flag":"https://www.countryflags.io/TF/flat/64.png",
      "dial_code":"",
      "currency":"EUR"
   },
   {
      "name":"Gabon",
      "code":"GA",
      "flag":"https://www.countryflags.io/GA/flat/64.png",
      "dial_code":"241",
      "currency":"XAF"
   },
   {
      "name":"Gambia",
      "code":"GM",
      "flag":"https://www.countryflags.io/GM/flat/64.png",
      "dial_code":"220",
      "currency":"GMD"
   },
   {
      "name":"Georgia",
      "code":"GE",
      "flag":"https://www.countryflags.io/GE/flat/64.png",
      "dial_code":"995",
      "currency":"GEL"
   },
   {
      "name":"Germany",
      "code":"DE",
      "flag":"https://www.countryflags.io/DE/flat/64.png",
      "dial_code":"49",
      "currency":"EUR"
   },
   {
      "name":"Ghana",
      "code":"GH",
      "flag":"https://www.countryflags.io/GH/flat/64.png",
      "dial_code":"233",
      "currency":"GHS"
   },
   {
      "name":"Gibraltar",
      "code":"GI",
      "flag":"https://www.countryflags.io/GI/flat/64.png",
      "dial_code":"350",
      "currency":"GIP"
   },
   {
      "name":"Greece",
      "code":"GR",
      "flag":"https://www.countryflags.io/GR/flat/64.png",
      "dial_code":"30",
      "currency":"EUR"
   },
   {
      "name":"Greenland",
      "code":"GL",
      "flag":"https://www.countryflags.io/GL/flat/64.png",
      "dial_code":"299",
      "currency":"DKK"
   },
   {
      "name":"Grenada",
      "code":"GD",
      "flag":"https://www.countryflags.io/GD/flat/64.png",
      "dial_code":"+1-473",
      "currency":"XCD"
   },
   {
      "name":"Guadeloupe",
      "code":"GP",
      "flag":"https://www.countryflags.io/GP/flat/64.png",
      "dial_code":"590",
      "currency":"EUR"
   },
   {
      "name":"Guam",
      "code":"GU",
      "flag":"https://www.countryflags.io/GU/flat/64.png",
      "dial_code":"+1-671",
      "currency":"USD"
   },
   {
      "name":"Guatemala",
      "code":"GT",
      "flag":"https://www.countryflags.io/GT/flat/64.png",
      "dial_code":"502",
      "currency":"GTQ"
   },
   {
      "name":"Guernsey",
      "code":"GG",
      "flag":"https://www.countryflags.io/GG/flat/64.png",
      "dial_code":"+44-1481",
      "currency":"GBP"
   },
   {
      "name":"Guinea",
      "code":"GN",
      "flag":"https://www.countryflags.io/GN/flat/64.png",
      "dial_code":"224",
      "currency":"GNF"
   },
   {
      "name":"Guinea-Bissau",
      "code":"GW",
      "flag":"https://www.countryflags.io/GW/flat/64.png",
      "dial_code":"245",
      "currency":"XOF"
   },
   {
      "name":"Guyana",
      "code":"GY",
      "flag":"https://www.countryflags.io/GY/flat/64.png",
      "dial_code":"592",
      "currency":"GYD"
   },
   {
      "name":"Haiti",
      "code":"HT",
      "flag":"https://www.countryflags.io/HT/flat/64.png",
      "dial_code":"509",
      "currency":"HTG"
   },
   {
      "name":"Heard Island and Mcdonald Islands",
      "code":"HM",
      "flag":"https://www.countryflags.io/HM/flat/64.png",
      "dial_code":" ",
      "currency":"AUD"
   },
   {
      "name":"Holy See (Vatican City State)",
      "code":"VA",
      "flag":"https://www.countryflags.io/VA/flat/64.png",
      "dial_code":"379",
      "currency":"EUR"
   },
   {
      "name":"Honduras",
      "code":"HN",
      "flag":"https://www.countryflags.io/HN/flat/64.png",
      "dial_code":"504",
      "currency":"HNL"
   },
   {
      "name":"Hong Kong",
      "code":"HK",
      "flag":"https://www.countryflags.io/HK/flat/64.png",
      "dial_code":"852",
      "currency":"HKD"
   },
   {
      "name":"Hungary",
      "code":"HU",
      "flag":"https://www.countryflags.io/HU/flat/64.png",
      "dial_code":"36",
      "currency":"HUF"
   },
   {
      "name":"Iceland",
      "code":"IS",
      "flag":"https://www.countryflags.io/IS/flat/64.png",
      "dial_code":"354",
      "currency":"ISK"
   },
   {
      "name":"India",
      "code":"IN",
      "flag":"https://www.countryflags.io/IN/flat/64.png",
      "dial_code":"91",
      "currency":"INR"
   },
   {
      "name":"Indonesia",
      "code":"ID",
      "flag":"https://www.countryflags.io/ID/flat/64.png",
      "dial_code":"62",
      "currency":"IDR"
   },
   {
      "name":"Iran, Islamic Republic Of",
      "code":"IR",
      "flag":"https://www.countryflags.io/IR/flat/64.png",
      "dial_code":"98",
      "currency":"IRR"
   },
   {
      "name":"Iraq",
      "code":"IQ",
      "flag":"https://www.countryflags.io/IQ/flat/64.png",
      "dial_code":"964",
      "currency":"IQD"
   },
   {
      "name":"Ireland",
      "code":"IE",
      "flag":"https://www.countryflags.io/IE/flat/64.png",
      "dial_code":"353",
      "currency":"EUR"
   },
   {
      "name":"Isle of Man",
      "code":"IM",
      "flag":"https://www.countryflags.io/IM/flat/64.png",
      "dial_code":"+44-1624",
      "currency":"GBP"
   },
   {
      "name":"Israel",
      "code":"IL",
      "flag":"https://www.countryflags.io/IL/flat/64.png",
      "dial_code":"972",
      "currency":"ILS"
   },
   {
      "name":"Italy",
      "code":"IT",
      "flag":"https://www.countryflags.io/IT/flat/64.png",
      "dial_code":"39",
      "currency":"EUR"
   },
   {
      "name":"Jamaica",
      "code":"JM",
      "flag":"https://www.countryflags.io/JM/flat/64.png",
      "dial_code":"+1-876",
      "currency":"JMD"
   },
   {
      "name":"Japan",
      "code":"JP",
      "flag":"https://www.countryflags.io/JP/flat/64.png",
      "dial_code":"81",
      "currency":"JPY"
   },
   {
      "name":"Jersey",
      "code":"JE",
      "flag":"https://www.countryflags.io/JE/flat/64.png",
      "dial_code":"+44-1534",
      "currency":"GBP"
   },
   {
      "name":"Jordan",
      "code":"JO",
      "flag":"https://www.countryflags.io/JO/flat/64.png",
      "dial_code":"962",
      "currency":"JOD"
   },
   {
      "name":"Kazakhstan",
      "code":"KZ",
      "flag":"https://www.countryflags.io/KZ/flat/64.png",
      "dial_code":"7",
      "currency":"KZT"
   },
   {
      "name":"Kenya",
      "code":"KE",
      "flag":"https://www.countryflags.io/KE/flat/64.png",
      "dial_code":"254",
      "currency":"KES"
   },
   {
      "name":"Kiribati",
      "code":"KI",
      "flag":"https://www.countryflags.io/KI/flat/64.png",
      "dial_code":"686",
      "currency":"AUD"
   },
   {
      "name":"Korea, Democratic People'S Republic of",
      "code":"KP",
      "flag":"https://www.countryflags.io/KP/flat/64.png",
      "dial_code":"850",
      "currency":"KPW"
   },
   {
      "name":"Korea, Republic of",
      "code":"KR",
      "flag":"https://www.countryflags.io/KR/flat/64.png",
      "dial_code":"82",
      "currency":"KRW"
   },
   {
      "name":"Kuwait",
      "code":"KW",
      "flag":"https://www.countryflags.io/KW/flat/64.png",
      "dial_code":"965",
      "currency":"KWD"
   },
   {
      "name":"Kyrgyzstan",
      "code":"KG",
      "flag":"https://www.countryflags.io/KG/flat/64.png",
      "dial_code":"996",
      "currency":"KGS"
   },
   {
      "name":"Lao People'S Democratic Republic",
      "code":"LA",
      "flag":"https://www.countryflags.io/LA/flat/64.png",
      "dial_code":"856",
      "currency":"LAK"
   },
   {
      "name":"Latvia",
      "code":"LV",
      "flag":"https://www.countryflags.io/LV/flat/64.png",
      "dial_code":"371",
      "currency":"EUR"
   },
   {
      "name":"Lebanon",
      "code":"LB",
      "flag":"https://www.countryflags.io/LB/flat/64.png",
      "dial_code":"961",
      "currency":"LBP"
   },
   {
      "name":"Lesotho",
      "code":"LS",
      "flag":"https://www.countryflags.io/LS/flat/64.png",
      "dial_code":"266",
      "currency":"LSL"
   },
   {
      "name":"Liberia",
      "code":"LR",
      "flag":"https://www.countryflags.io/LR/flat/64.png",
      "dial_code":"231",
      "currency":"LRD"
   },
   {
      "name":"Libyan Arab Jamahiriya",
      "code":"LY",
      "flag":"https://www.countryflags.io/LY/flat/64.png",
      "dial_code":"218",
      "currency":"LYD"
   },
   {
      "name":"Liechtenstein",
      "code":"LI",
      "flag":"https://www.countryflags.io/LI/flat/64.png",
      "dial_code":"423",
      "currency":"CHF"
   },
   {
      "name":"Lithuania",
      "code":"LT",
      "flag":"https://www.countryflags.io/LT/flat/64.png",
      "dial_code":"370",
      "currency":"LTL"
   },
   {
      "name":"Luxembourg",
      "code":"LU",
      "flag":"https://www.countryflags.io/LU/flat/64.png",
      "dial_code":"352",
      "currency":"EUR"
   },
   {
      "name":"Macao",
      "code":"MO",
      "flag":"https://www.countryflags.io/MO/flat/64.png",
      "dial_code":"853",
      "currency":"MOP"
   },
   {
      "name":"Macedonia, The Former Yugoslav Republic of",
      "code":"MK",
      "flag":"https://www.countryflags.io/MK/flat/64.png",
      "dial_code":"389",
      "currency":"MKD"
   },
   {
      "name":"Madagascar",
      "code":"MG",
      "flag":"https://www.countryflags.io/MG/flat/64.png",
      "dial_code":"261",
      "currency":"MGA"
   },
   {
      "name":"Malawi",
      "code":"MW",
      "flag":"https://www.countryflags.io/MW/flat/64.png",
      "dial_code":"265",
      "currency":"MWK"
   },
   {
      "name":"Malaysia",
      "code":"MY",
      "flag":"https://www.countryflags.io/MY/flat/64.png",
      "dial_code":"60",
      "currency":"MYR"
   },
   {
      "name":"Maldives",
      "code":"MV",
      "flag":"https://www.countryflags.io/MV/flat/64.png",
      "dial_code":"960",
      "currency":"MVR"
   },
   {
      "name":"Mali",
      "code":"ML",
      "flag":"https://www.countryflags.io/ML/flat/64.png",
      "dial_code":"223",
      "currency":"XOF"
   },
   {
      "name":"Malta",
      "code":"MT",
      "flag":"https://www.countryflags.io/MT/flat/64.png",
      "dial_code":"356",
      "currency":"EUR"
   },
   {
      "name":"Marshall Islands",
      "code":"MH",
      "flag":"https://www.countryflags.io/MH/flat/64.png",
      "dial_code":"692",
      "currency":"USD"
   },
   {
      "name":"Martinique",
      "code":"MQ",
      "flag":"https://www.countryflags.io/MQ/flat/64.png",
      "dial_code":"596",
      "currency":"EUR"
   },
   {
      "name":"Mauritania",
      "code":"MR",
      "flag":"https://www.countryflags.io/MR/flat/64.png",
      "dial_code":"222",
      "currency":"MRO"
   },
   {
      "name":"Mauritius",
      "code":"MU",
      "flag":"https://www.countryflags.io/MU/flat/64.png",
      "dial_code":"230",
      "currency":"MUR"
   },
   {
      "name":"Mayotte",
      "code":"YT",
      "flag":"https://www.countryflags.io/YT/flat/64.png",
      "dial_code":"262",
      "currency":"EUR"
   },
   {
      "name":"Mexico",
      "code":"MX",
      "flag":"https://www.countryflags.io/MX/flat/64.png",
      "dial_code":"52",
      "currency":"MXN"
   },
   {
      "name":"Micronesia, Federated States of",
      "code":"FM",
      "flag":"https://www.countryflags.io/FM/flat/64.png",
      "dial_code":"691",
      "currency":"USD"
   },
   {
      "name":"Moldova, Republic of",
      "code":"MD",
      "flag":"https://www.countryflags.io/MD/flat/64.png",
      "dial_code":"373",
      "currency":"MDL"
   },
   {
      "name":"Monaco",
      "code":"MC",
      "flag":"https://www.countryflags.io/MC/flat/64.png",
      "dial_code":"377",
      "currency":"EUR"
   },
   {
      "name":"Mongolia",
      "code":"MN",
      "flag":"https://www.countryflags.io/MN/flat/64.png",
      "dial_code":"976",
      "currency":"MNT"
   },
   {
      "name":"Montserrat",
      "code":"MS",
      "flag":"https://www.countryflags.io/MS/flat/64.png",
      "dial_code":"+1-664",
      "currency":"XCD"
   },
   {
      "name":"Morocco",
      "code":"MA",
      "flag":"https://www.countryflags.io/MA/flat/64.png",
      "dial_code":"212",
      "currency":"MAD"
   },
   {
      "name":"Mozambique",
      "code":"MZ",
      "flag":"https://www.countryflags.io/MZ/flat/64.png",
      "dial_code":"258",
      "currency":"MZN"
   },
   {
      "name":"Myanmar",
      "code":"MM",
      "flag":"https://www.countryflags.io/MM/flat/64.png",
      "dial_code":"95",
      "currency":"MMK"
   },
   {
      "name":"Namibia",
      "code":"NA",
      "flag":"https://www.countryflags.io/NA/flat/64.png",
      "dial_code":"264",
      "currency":"NAD"
   },
   {
      "name":"Nauru",
      "code":"NR",
      "flag":"https://www.countryflags.io/NR/flat/64.png",
      "dial_code":"674",
      "currency":"AUD"
   },
   {
      "name":"Nepal",
      "code":"NP",
      "flag":"https://www.countryflags.io/NP/flat/64.png",
      "dial_code":"977",
      "currency":"NPR"
   },
   {
      "name":"Netherlands",
      "code":"NL",
      "flag":"https://www.countryflags.io/NL/flat/64.png",
      "dial_code":"31",
      "currency":"EUR"
   },
   {
      "name":"Netherlands Antilles",
      "code":"AN",
      "flag":"https://www.countryflags.io/AN/flat/64.png"
   },
   {
      "name":"New Caledonia",
      "code":"NC",
      "flag":"https://www.countryflags.io/NC/flat/64.png",
      "dial_code":"687",
      "currency":"XPF"
   },
   {
      "name":"New Zealand",
      "code":"NZ",
      "flag":"https://www.countryflags.io/NZ/flat/64.png",
      "dial_code":"64",
      "currency":"NZD"
   },
   {
      "name":"Nicaragua",
      "code":"NI",
      "flag":"https://www.countryflags.io/NI/flat/64.png",
      "dial_code":"505",
      "currency":"NIO"
   },
   {
      "name":"Niger",
      "code":"NE",
      "flag":"https://www.countryflags.io/NE/flat/64.png",
      "dial_code":"227",
      "currency":"XOF"
   },
   {
      "name":"Nigeria",
      "code":"NG",
      "flag":"https://www.countryflags.io/NG/flat/64.png",
      "dial_code":"234",
      "currency":"NGN"
   },
   {
      "name":"Niue",
      "code":"NU",
      "flag":"https://www.countryflags.io/NU/flat/64.png",
      "dial_code":"683",
      "currency":"NZD"
   },
   {
      "name":"Norfolk Island",
      "code":"NF",
      "flag":"https://www.countryflags.io/NF/flat/64.png",
      "dial_code":"672",
      "currency":"AUD"
   },
   {
      "name":"Northern Mariana Islands",
      "code":"MP",
      "flag":"https://www.countryflags.io/MP/flat/64.png",
      "dial_code":"+1-670",
      "currency":"USD"
   },
   {
      "name":"Norway",
      "code":"NO",
      "flag":"https://www.countryflags.io/NO/flat/64.png",
      "dial_code":"47",
      "currency":"NOK"
   },
   {
      "name":"Oman",
      "code":"OM",
      "flag":"https://www.countryflags.io/OM/flat/64.png",
      "dial_code":"968",
      "currency":"OMR"
   },
   {
      "name":"Pakistan",
      "code":"PK",
      "flag":"https://www.countryflags.io/PK/flat/64.png",
      "dial_code":"92",
      "currency":"PKR"
   },
   {
      "name":"Palau",
      "code":"PW",
      "flag":"https://www.countryflags.io/PW/flat/64.png",
      "dial_code":"680",
      "currency":"USD"
   },
   {
      "name":"Palestinian Territory, Occupied",
      "code":"PS",
      "flag":"https://www.countryflags.io/PS/flat/64.png",
      "dial_code":"970",
      "currency":"ILS"
   },
   {
      "name":"Panama",
      "code":"PA",
      "flag":"https://www.countryflags.io/PA/flat/64.png",
      "dial_code":"507",
      "currency":"PAB"
   },
   {
      "name":"Papua New Guinea",
      "code":"PG",
      "flag":"https://www.countryflags.io/PG/flat/64.png",
      "dial_code":"675",
      "currency":"PGK"
   },
   {
      "name":"Paraguay",
      "code":"PY",
      "flag":"https://www.countryflags.io/PY/flat/64.png",
      "dial_code":"595",
      "currency":"PYG"
   },
   {
      "name":"Peru",
      "code":"PE",
      "flag":"https://www.countryflags.io/PE/flat/64.png",
      "dial_code":"51",
      "currency":"PEN"
   },
   {
      "name":"Philippines",
      "code":"PH",
      "flag":"https://www.countryflags.io/PH/flat/64.png",
      "dial_code":"63",
      "currency":"PHP"
   },
   {
      "name":"Pitcairn",
      "code":"PN",
      "flag":"https://www.countryflags.io/PN/flat/64.png",
      "dial_code":"870",
      "currency":"NZD"
   },
   {
      "name":"Poland",
      "code":"PL",
      "flag":"https://www.countryflags.io/PL/flat/64.png",
      "dial_code":"48",
      "currency":"PLN"
   },
   {
      "name":"Portugal",
      "code":"PT",
      "flag":"https://www.countryflags.io/PT/flat/64.png",
      "dial_code":"351",
      "currency":"EUR"
   },
   {
      "name":"Puerto Rico",
      "code":"PR",
      "flag":"https://www.countryflags.io/PR/flat/64.png",
      "dial_code":"+1-787 and 1-939",
      "currency":"USD"
   },
   {
      "name":"Qatar",
      "code":"QA",
      "flag":"https://www.countryflags.io/QA/flat/64.png",
      "dial_code":"974",
      "currency":"QAR"
   },
   {
      "name":"Reunion",
      "code":"RE",
      "flag":"https://www.countryflags.io/RE/flat/64.png",
      "dial_code":"262",
      "currency":"EUR"
   },
   {
      "name":"Romania",
      "code":"RO",
      "flag":"https://www.countryflags.io/RO/flat/64.png",
      "dial_code":"40",
      "currency":"RON"
   },
   {
      "name":"Russian Federation",
      "code":"RU",
      "flag":"https://www.countryflags.io/RU/flat/64.png",
      "dial_code":"7",
      "currency":"RUB"
   },
   {
      "name":"RWANDA",
      "code":"RW",
      "flag":"https://www.countryflags.io/RW/flat/64.png",
      "dial_code":"250",
      "currency":"RWF"
   },
   {
      "name":"Saint Helena",
      "code":"SH",
      "flag":"https://www.countryflags.io/SH/flat/64.png",
      "dial_code":"290",
      "currency":"SHP"
   },
   {
      "name":"Saint Kitts and Nevis",
      "code":"KN",
      "flag":"https://www.countryflags.io/KN/flat/64.png",
      "dial_code":"+1-869",
      "currency":"XCD"
   },
   {
      "name":"Saint Lucia",
      "code":"LC",
      "flag":"https://www.countryflags.io/LC/flat/64.png",
      "dial_code":"+1-758",
      "currency":"XCD"
   },
   {
      "name":"Saint Pierre and Miquelon",
      "code":"PM",
      "flag":"https://www.countryflags.io/PM/flat/64.png",
      "dial_code":"508",
      "currency":"EUR"
   },
   {
      "name":"Saint Vincent and the Grenadines",
      "code":"VC",
      "flag":"https://www.countryflags.io/VC/flat/64.png",
      "dial_code":"+1-784",
      "currency":"XCD"
   },
   {
      "name":"Samoa",
      "code":"WS",
      "flag":"https://www.countryflags.io/WS/flat/64.png",
      "dial_code":"685",
      "currency":"WST"
   },
   {
      "name":"San Marino",
      "code":"SM",
      "flag":"https://www.countryflags.io/SM/flat/64.png",
      "dial_code":"378",
      "currency":"EUR"
   },
   {
      "name":"Sao Tome and Principe",
      "code":"ST",
      "flag":"https://www.countryflags.io/ST/flat/64.png",
      "dial_code":"239",
      "currency":"STD"
   },
   {
      "name":"Saudi Arabia",
      "code":"SA",
      "flag":"https://www.countryflags.io/SA/flat/64.png",
      "dial_code":"966",
      "currency":"SAR"
   },
   {
      "name":"Senegal",
      "code":"SN",
      "flag":"https://www.countryflags.io/SN/flat/64.png",
      "dial_code":"221",
      "currency":"XOF"
   },
   {
      "name":"Serbia and Montenegro",
      "code":"CS",
      "flag":"https://www.countryflags.io/CS/flat/64.png"
   },
   {
      "name":"Seychelles",
      "code":"SC",
      "flag":"https://www.countryflags.io/SC/flat/64.png",
      "dial_code":"248",
      "currency":"SCR"
   },
   {
      "name":"Sierra Leone",
      "code":"SL",
      "flag":"https://www.countryflags.io/SL/flat/64.png",
      "dial_code":"232",
      "currency":"SLL"
   },
   {
      "name":"Singapore",
      "code":"SG",
      "flag":"https://www.countryflags.io/SG/flat/64.png",
      "dial_code":"65",
      "currency":"SGD"
   },
   {
      "name":"Slovakia",
      "code":"SK",
      "flag":"https://www.countryflags.io/SK/flat/64.png",
      "dial_code":"421",
      "currency":"EUR"
   },
   {
      "name":"Slovenia",
      "code":"SI",
      "flag":"https://www.countryflags.io/SI/flat/64.png",
      "dial_code":"386",
      "currency":"EUR"
   },
   {
      "name":"Solomon Islands",
      "code":"SB",
      "flag":"https://www.countryflags.io/SB/flat/64.png",
      "dial_code":"677",
      "currency":"SBD"
   },
   {
      "name":"Somalia",
      "code":"SO",
      "flag":"https://www.countryflags.io/SO/flat/64.png",
      "dial_code":"252",
      "currency":"SOS"
   },
   {
      "name":"South Africa",
      "code":"ZA",
      "flag":"https://www.countryflags.io/ZA/flat/64.png",
      "dial_code":"27",
      "currency":"ZAR"
   },
   {
      "name":"South Georgia and the South Sandwich Islands",
      "code":"GS",
      "flag":"https://www.countryflags.io/GS/flat/64.png",
      "dial_code":"",
      "currency":"GBP"
   },
   {
      "name":"Spain",
      "code":"ES",
      "flag":"https://www.countryflags.io/ES/flat/64.png",
      "dial_code":"34",
      "currency":"EUR"
   },
   {
      "name":"Sri Lanka",
      "code":"LK",
      "flag":"https://www.countryflags.io/LK/flat/64.png",
      "dial_code":"94",
      "currency":"LKR"
   },
   {
      "name":"Sudan",
      "code":"SD",
      "flag":"https://www.countryflags.io/SD/flat/64.png",
      "dial_code":"249",
      "currency":"SDG"
   },
   {
      "name":"Suriname",
      "code":"SR",
      "flag":"https://www.countryflags.io/SR/flat/64.png",
      "dial_code":"597",
      "currency":"SRD"
   },
   {
      "name":"Svalbard and Jan Mayen",
      "code":"SJ",
      "flag":"https://www.countryflags.io/SJ/flat/64.png",
      "dial_code":"47",
      "currency":"NOK"
   },
   {
      "name":"Swaziland",
      "code":"SZ",
      "flag":"https://www.countryflags.io/SZ/flat/64.png",
      "dial_code":"268",
      "currency":"SZL"
   },
   {
      "name":"Sweden",
      "code":"SE",
      "flag":"https://www.countryflags.io/SE/flat/64.png",
      "dial_code":"46",
      "currency":"SEK"
   },
   {
      "name":"Switzerland",
      "code":"CH",
      "flag":"https://www.countryflags.io/CH/flat/64.png",
      "dial_code":"41",
      "currency":"CHF"
   },
   {
      "name":"Syrian Arab Republic",
      "code":"SY",
      "flag":"https://www.countryflags.io/SY/flat/64.png",
      "dial_code":"963",
      "currency":"SYP"
   },
   {
      "name":"Taiwan, Province of China",
      "code":"TW",
      "flag":"https://www.countryflags.io/TW/flat/64.png",
      "dial_code":"886",
      "currency":"TWD"
   },
   {
      "name":"Tajikistan",
      "code":"TJ",
      "flag":"https://www.countryflags.io/TJ/flat/64.png",
      "dial_code":"992",
      "currency":"TJS"
   },
   {
      "name":"Tanzania, United Republic of",
      "code":"TZ",
      "flag":"https://www.countryflags.io/TZ/flat/64.png",
      "dial_code":"255",
      "currency":"TZS"
   },
   {
      "name":"Thailand",
      "code":"TH",
      "flag":"https://www.countryflags.io/TH/flat/64.png",
      "dial_code":"66",
      "currency":"THB"
   },
   {
      "name":"Timor-Leste",
      "code":"TL",
      "flag":"https://www.countryflags.io/TL/flat/64.png",
      "dial_code":"670",
      "currency":"USD"
   },
   {
      "name":"Togo",
      "code":"TG",
      "flag":"https://www.countryflags.io/TG/flat/64.png",
      "dial_code":"228",
      "currency":"XOF"
   },
   {
      "name":"Tokelau",
      "code":"TK",
      "flag":"https://www.countryflags.io/TK/flat/64.png",
      "dial_code":"690",
      "currency":"NZD"
   },
   {
      "name":"Tonga",
      "code":"TO",
      "flag":"https://www.countryflags.io/TO/flat/64.png",
      "dial_code":"676",
      "currency":"TOP"
   },
   {
      "name":"Trinidad and Tobago",
      "code":"TT",
      "flag":"https://www.countryflags.io/TT/flat/64.png",
      "dial_code":"+1-868",
      "currency":"TTD"
   },
   {
      "name":"Tunisia",
      "code":"TN",
      "flag":"https://www.countryflags.io/TN/flat/64.png",
      "dial_code":"216",
      "currency":"TND"
   },
   {
      "name":"Turkey",
      "code":"TR",
      "flag":"https://www.countryflags.io/TR/flat/64.png",
      "dial_code":"90",
      "currency":"TRY"
   },
   {
      "name":"Turkmenistan",
      "code":"TM",
      "flag":"https://www.countryflags.io/TM/flat/64.png",
      "dial_code":"993",
      "currency":"TMT"
   },
   {
      "name":"Turks and Caicos Islands",
      "code":"TC",
      "flag":"https://www.countryflags.io/TC/flat/64.png",
      "dial_code":"+1-649",
      "currency":"USD"
   },
   {
      "name":"Tuvalu",
      "code":"TV",
      "flag":"https://www.countryflags.io/TV/flat/64.png",
      "dial_code":"688",
      "currency":"AUD"
   },
   {
      "name":"Uganda",
      "code":"UG",
      "flag":"https://www.countryflags.io/UG/flat/64.png",
      "dial_code":"256",
      "currency":"UGX"
   },
   {
      "name":"Ukraine",
      "code":"UA",
      "flag":"https://www.countryflags.io/UA/flat/64.png",
      "dial_code":"380",
      "currency":"UAH"
   },
   {
      "name":"United Arab Emirates",
      "code":"AE",
      "flag":"https://www.countryflags.io/AE/flat/64.png",
      "dial_code":"971",
      "currency":"AED"
   },
   {
      "name":"United Kingdom",
      "code":"GB",
      "flag":"https://www.countryflags.io/GB/flat/64.png",
      "dial_code":"44",
      "currency":"GBP"
   },
   {
      "name":"United States",
      "code":"US",
      "flag":"https://www.countryflags.io/US/flat/64.png",
      "dial_code":"1",
      "currency":"USD"
   },
   {
      "name":"United States Minor Outlying Islands",
      "code":"UM",
      "flag":"https://www.countryflags.io/UM/flat/64.png",
      "dial_code":"1",
      "currency":"USD"
   },
   {
      "name":"Uruguay",
      "code":"UY",
      "flag":"https://www.countryflags.io/UY/flat/64.png",
      "dial_code":"598",
      "currency":"UYU"
   },
   {
      "name":"Uzbekistan",
      "code":"UZ",
      "flag":"https://www.countryflags.io/UZ/flat/64.png",
      "dial_code":"998",
      "currency":"UZS"
   },
   {
      "name":"Vanuatu",
      "code":"VU",
      "flag":"https://www.countryflags.io/VU/flat/64.png",
      "dial_code":"678",
      "currency":"VUV"
   },
   {
      "name":"Venezuela",
      "code":"VE",
      "flag":"https://www.countryflags.io/VE/flat/64.png",
      "dial_code":"58",
      "currency":"VEF"
   },
   {
      "name":"Viet Nam",
      "code":"VN",
      "flag":"https://www.countryflags.io/VN/flat/64.png",
      "dial_code":"84",
      "currency":"VND"
   },
   {
      "name":"Virgin Islands, British",
      "code":"VG",
      "flag":"https://www.countryflags.io/VG/flat/64.png",
      "dial_code":"+1-284",
      "currency":"USD"
   },
   {
      "name":"Virgin Islands, U.S.",
      "code":"VI",
      "flag":"https://www.countryflags.io/VI/flat/64.png",
      "dial_code":"+1-340",
      "currency":"USD"
   },
   {
      "name":"Wallis and Futuna",
      "code":"WF",
      "flag":"https://www.countryflags.io/WF/flat/64.png",
      "dial_code":"681",
      "currency":"XPF"
   },
   {
      "name":"Western Sahara",
      "code":"EH",
      "flag":"https://www.countryflags.io/EH/flat/64.png",
      "dial_code":"212",
      "currency":"MAD"
   },
   {
      "name":"Yemen",
      "code":"YE",
      "flag":"https://www.countryflags.io/YE/flat/64.png",
      "dial_code":"967",
      "currency":"YER"
   },
   {
      "name":"Zambia",
      "code":"ZM",
      "flag":"https://www.countryflags.io/ZM/flat/64.png",
      "dial_code":"260",
      "currency":"ZMK"
   },
   {
      "name":"Zimbabwe",
      "code":"ZW",
      "flag":"https://www.countryflags.io/ZW/flat/64.png",
      "dial_code":"263",
      "currency":"ZWL"
   }
]